CCSDS_OMM_VERS = 2.0
CREATION_DATE  = 
ORIGINATOR     = 

OBJECT_NAME    = OKEAN-3
OBJECT_ID      = 1991-039A
CENTER_NAME    = EARTH
REF_FRAME      = TEME
TIME_SYSTEM    = UTC
MEAN_ELEMENT_THEORY = SGP/SGP4

EPOCH          = 2025-11-04T16:35:11.509152
MEAN_MOTION    = 15.03720817
ECCENTRICITY   = .0015494
INCLINATION    = 82.5141
RA_OF_ASC_NODE = 97.8623
ARG_OF_PERICENTER = 39.7173
MEAN_ANOMALY   = 320.5184

EPHEMERIS_TYPE = 0
CLASSIFICATION_TYPE = U
NORAD_CAT_ID   = 21397
ELEMENT_SET_NO = 999
REV_AT_EPOCH   = 84624
BSTAR          = .31069E-3
MEAN_MOTION_DOT = .4297E-4
MEAN_MOTION_DDOT = 0

CCSDS_OMM_VERS = 2.0
CREATION_DATE  = 
ORIGINATOR     = 

OBJECT_NAME    = COSMOS 2151
OBJECT_ID      = 1991-042A
CENTER_NAME    = EARTH
REF_FRAME      = TEME
TIME_SYSTEM    = UTC
MEAN_ELEMENT_THEORY = SGP/SGP4

EPOCH          = 2025-11-04T18:56:20.209056
MEAN_MOTION    = 14.99475517
ECCENTRICITY   = .0013936
INCLINATION    = 82.4995
RA_OF_ASC_NODE = 204.0635
ARG_OF_PERICENTER = 116.7455
MEAN_ANOMALY   = 243.5197

EPHEMERIS_TYPE = 0
CLASSIFICATION_TYPE = U
NORAD_CAT_ID   = 21422
ELEMENT_SET_NO = 999
REV_AT_EPOCH   = 84447
BSTAR          = .20107E-3
MEAN_MOTION_DOT = .2497E-4
MEAN_MOTION_DDOT = 0

CCSDS_OMM_VERS = 2.0
CREATION_DATE  = 
ORIGINATOR     = 

OBJECT_NAME    = SL-14 R/B
OBJECT_ID      = 1991-042B
CENTER_NAME    = EARTH
REF_FRAME      = TEME
TIME_SYSTEM    = UTC
MEAN_ELEMENT_THEORY = SGP/SGP4

EPOCH          = 2025-11-04T19:54:30.068352
MEAN_MOTION    = 14.81686329
ECCENTRICITY   = .0015567
INCLINATION    = 82.4929
RA_OF_ASC_NODE = 337.2779
ARG_OF_PERICENTER = 293.6384
MEAN_ANOMALY   = 66.3195

EPHEMERIS_TYPE = 0
CLASSIFICATION_TYPE = U
NORAD_CAT_ID   = 21423
ELEMENT_SET_NO = 999
REV_AT_EPOCH   = 83458
BSTAR          = .55679E-4
MEAN_MOTION_DOT = .462E-5
MEAN_MOTION_DDOT = 0

CCSDS_OMM_VERS = 2.0
CREATION_DATE  = 
ORIGINATOR     = 

OBJECT_NAME    = ERS-1
OBJECT_ID      = 1991-050A
CENTER_NAME    = EARTH
REF_FRAME      = TEME
TIME_SYSTEM    = UTC
MEAN_ELEMENT_THEORY = SGP/SGP4

EPOCH          = 2025-11-04T12:04:23.108736
MEAN_MOTION    = 14.39318971
ECCENTRICITY   = .0031424
INCLINATION    = 98.7929
RA_OF_ASC_NODE = 318.5971
ARG_OF_PERICENTER = 212.0514
MEAN_ANOMALY   = 147.8763

EPHEMERIS_TYPE = 0
CLASSIFICATION_TYPE = U
NORAD_CAT_ID   = 21574
ELEMENT_SET_NO = 999
REV_AT_EPOCH   = 79772
BSTAR          = .12949E-3
MEAN_MOTION_DOT = .358E-5
MEAN_MOTION_DDOT = 0

CCSDS_OMM_VERS = 2.0
CREATION_DATE  = 
ORIGINATOR     = 

OBJECT_NAME    = ARIANE 40 R/B
OBJECT_ID      = 1991-050F
CENTER_NAME    = EARTH
REF_FRAME      = TEME
TIME_SYSTEM    = UTC
MEAN_ELEMENT_THEORY = SGP/SGP4

EPOCH          = 2025-11-04T20:26:26.016000
MEAN_MOTION    = 14.42762653
ECCENTRICITY   = .0004407
INCLINATION    = 98.2222
RA_OF_ASC_NODE = 0.6399
ARG_OF_PERICENTER = 93.9122
MEAN_ANOMALY   = 266.2573

EPHEMERIS_TYPE = 0
CLASSIFICATION_TYPE = U
NORAD_CAT_ID   = 21610
ELEMENT_SET_NO = 999
REV_AT_EPOCH   = 80099
BSTAR          = .13113E-3
MEAN_MOTION_DOT = .395E-5
MEAN_MOTION_DDOT = 0

CCSDS_OMM_VERS = 2.0
CREATION_DATE  = 
ORIGINATOR     = 

OBJECT_NAME    = SL-8 R/B
OBJECT_ID      = 1992-008B
CENTER_NAME    = EARTH
REF_FRAME      = TEME
TIME_SYSTEM    = UTC
MEAN_ELEMENT_THEORY = SGP/SGP4

EPOCH          = 2025-11-04T21:19:37.886016
MEAN_MOTION    = 13.75947387
ECCENTRICITY   = .003597
INCLINATION    = 82.9294
RA_OF_ASC_NODE = 0.5992
ARG_OF_PERICENTER = 122.2527
MEAN_ANOMALY   = 50.7900

EPHEMERIS_TYPE = 0
CLASSIFICATION_TYPE = U
NORAD_CAT_ID   = 21876
ELEMENT_SET_NO = 999
REV_AT_EPOCH   = 69225
BSTAR          = .10579E-3
MEAN_MOTION_DOT = .119E-5
MEAN_MOTION_DDOT = 0

CCSDS_OMM_VERS = 2.0
CREATION_DATE  = 
ORIGINATOR     = 

OBJECT_NAME    = SL-8 R/B
OBJECT_ID      = 1992-020B
CENTER_NAME    = EARTH
REF_FRAME      = TEME
TIME_SYSTEM    = UTC
MEAN_ELEMENT_THEORY = SGP/SGP4

EPOCH          = 2025-11-04T18:58:46.174080
MEAN_MOTION    = 13.75520158
ECCENTRICITY   = .0027688
INCLINATION    = 82.9300
RA_OF_ASC_NODE = 246.4957
ARG_OF_PERICENTER = 287.8258
MEAN_ANOMALY   = 99.4362

EPHEMERIS_TYPE = 0
CLASSIFICATION_TYPE = U
NORAD_CAT_ID   = 21938
ELEMENT_SET_NO = 999
REV_AT_EPOCH   = 68396
BSTAR          = .29825E-4
MEAN_MOTION_DOT = .44E-6
MEAN_MOTION_DDOT = 0

CCSDS_OMM_VERS = 2.0
CREATION_DATE  = 
ORIGINATOR     = 

OBJECT_NAME    = USA 81
OBJECT_ID      = 1992-023A
CENTER_NAME    = EARTH
REF_FRAME      = TEME
TIME_SYSTEM    = UTC
MEAN_ELEMENT_THEORY = SGP/SGP4

EPOCH          = 2025-11-04T16:20:19.302144
MEAN_MOTION    = 14.32305426
ECCENTRICITY   = .0002782
INCLINATION    = 85.0116
RA_OF_ASC_NODE = 203.5191
ARG_OF_PERICENTER = 83.1884
MEAN_ANOMALY   = 276.9625

EPHEMERIS_TYPE = 0
CLASSIFICATION_TYPE = U
NORAD_CAT_ID   = 21949
ELEMENT_SET_NO = 999
REV_AT_EPOCH   = 7689
BSTAR          = .76471E-4
MEAN_MOTION_DOT = .226E-5
MEAN_MOTION_DDOT = 0

CCSDS_OMM_VERS = 2.0
CREATION_DATE  = 
ORIGINATOR     = 

OBJECT_NAME    = COSMOS 2219
OBJECT_ID      = 1992-076A
CENTER_NAME    = EARTH
REF_FRAME      = TEME
TIME_SYSTEM    = UTC
MEAN_ELEMENT_THEORY = SGP/SGP4

EPOCH          = 2025-11-04T21:05:55.917024
MEAN_MOTION    = 14.14061093
ECCENTRICITY   = .0017153
INCLINATION    = 71.0599
RA_OF_ASC_NODE = 278.9732
ARG_OF_PERICENTER = 24.3415
MEAN_ANOMALY   = 335.8514

EPHEMERIS_TYPE = 0
CLASSIFICATION_TYPE = U
NORAD_CAT_ID   = 22219
ELEMENT_SET_NO = 999
REV_AT_EPOCH   = 70073
BSTAR          = .18934E-3
MEAN_MOTION_DOT = .314E-5
MEAN_MOTION_DDOT = 0

CCSDS_OMM_VERS = 2.0
CREATION_DATE  = 
ORIGINATOR     = 

OBJECT_NAME    = SL-16 R/B
OBJECT_ID      = 1992-076B
CENTER_NAME    = EARTH
REF_FRAME      = TEME
TIME_SYSTEM    = UTC
MEAN_ELEMENT_THEORY = SGP/SGP4

EPOCH          = 2025-11-04T19:47:33.558144
MEAN_MOTION    = 14.16831913
ECCENTRICITY   = .0015019
INCLINATION    = 70.9985
RA_OF_ASC_NODE = 91.3952
ARG_OF_PERICENTER = 283.2511
MEAN_ANOMALY   = 240.6188

EPHEMERIS_TYPE = 0
CLASSIFICATION_TYPE = U
NORAD_CAT_ID   = 22220
ELEMENT_SET_NO = 999
REV_AT_EPOCH   = 70414
BSTAR          = .16439E-3
MEAN_MOTION_DOT = .282E-5
MEAN_MOTION_DDOT = 0

CCSDS_OMM_VERS = 2.0
CREATION_DATE  = 
ORIGINATOR     = 

OBJECT_NAME    = COSMOS 2221
OBJECT_ID      = 1992-080A
CENTER_NAME    = EARTH
REF_FRAME      = TEME
TIME_SYSTEM    = UTC
MEAN_ELEMENT_THEORY = SGP/SGP4

EPOCH          = 2025-11-04T18:00:39.984192
MEAN_MOTION    = 14.95529518
ECCENTRICITY   = .001326
INCLINATION    = 82.5070
RA_OF_ASC_NODE = 38.6732
ARG_OF_PERICENTER = 250.0333
MEAN_ANOMALY   = 109.9461

EPHEMERIS_TYPE = 0
CLASSIFICATION_TYPE = U
NORAD_CAT_ID   = 22236
ELEMENT_SET_NO = 999
REV_AT_EPOCH   = 76211
BSTAR          = .21247E-3
MEAN_MOTION_DOT = .2383E-4
MEAN_MOTION_DDOT = 0

