OKEAN-3                 
1 21397U 91039A   25308.69110543  .00004297  00000+0  31069-3 0  9994
2 21397  82.5141  97.8623 0015494  39.7173 320.5184 15.03720817846244
COSMOS 2151             
1 21422U 91042A   25308.78912279  .00002497  00000+0  20107-3 0  9994
2 21422  82.4995 204.0635 0013936 116.7455 243.5197 14.99475517844471
SL-14 R/B               
1 21423U 91042B   25308.82951468  .00000462  00000+0  55679-4 0  9996
2 21423  82.4929 337.2779 0015567 293.6384  66.3195 14.81686329834581
ERS-1                   
1 21574U 91050A   25308.50304525  .00000358  00000+0  12949-3 0  9999
2 21574  98.7929 318.5971 0031423 212.0514 147.8763 14.39318971797721
ARIANE 40 R/B           
1 21610U 91050F   25308.85169000  .00000395  00000+0  13113-3 0  9990
2 21610  98.2222   0.6399 0004407  93.9122 266.2573 14.42762653800992
SL-8 R/B                
1 21876U 92008B   25308.88863294  .00000119  00000+0  10579-3 0  9994
2 21876  82.9294   0.5992 0035970 122.2527  50.7900 13.75947387692259
SL-8 R/B                
1 21938U 92020B   25308.79081220  .00000044  00000+0  29825-4 0  9990
2 21938  82.9300 246.4957 0027688 287.8258  99.4362 13.75520158683967
USA 81                  
1 21949U 92023A   25308.68077896  .00000226  00000+0  76471-4 0  9998
2 21949  85.0116 203.5191 0002782  83.1884 276.9625 14.32305426 76897
COSMOS 2219             
1 22219U 92076A   25308.87911941  .00000314  00000+0  18934-3 0  9993
2 22219  71.0599 278.9732 0017153  24.3415 335.8514 14.14061093700738
SL-16 R/B               
1 22220U 92076B   25308.82469396  .00000282  00000+0  16439-3 0  9994
2 22220  70.9985  91.3952 0015019 283.2511 240.6188 14.16831913704147
COSMOS 2221             
1 22236U 92080A   25308.75046278  .00002383  00000+0  21247-3 0  9995
2 22236  82.5070  38.6732 0013260 250.0333 109.9461 14.95529518762112
